[{"OBJECT_NAME":"QB50P2","OBJECT_ID":"2014-033Y","EPOCH":"2026-03-09T22:15:59.880096","MEAN_MOTION":15.13675048,"ECCENTRICITY":0.00085666,"INCLINATION":98.0738,"RA_OF_ASC_NODE":59.7545,"ARG_OF_PERICENTER":142.3387,"MEAN_ANOMALY":217.8444,"EPHEMERIS_TYPE":0,"CLASSIFICATION_TYPE":"U","NORAD_CAT_ID":40032,"ELEMENT_SET_NO":999,"REV_AT_EPOCH":63764,"BSTAR":0.00059145643,"MEAN_MOTION_DOT":0.00010584,"MEAN_MOTION_DDOT":0},{"OBJECT_NAME":"STARLINK-5357","OBJECT_ID":"2023-090AS","EPOCH":"2026-03-09T22:00:01.999584","MEAN_MOTION":15.10675773,"ECCENTRICITY":6.891e-5,"INCLINATION":43.0012,"RA_OF_ASC_NODE":260.3289,"ARG_OF_PERICENTER":288.3212,"MEAN_ANOMALY":241.1631,"EPHEMERIS_TYPE":0,"CLASSIFICATION_TYPE":"U","NORAD_CAT_ID":57141,"ELEMENT_SET_NO":999,"REV_AT_EPOCH":577,"BSTAR":0.0065397208,"MEAN_MOTION_DOT":0.00111663,"MEAN_MOTION_DDOT":0}]
